EUTELSAT 8 WEST B       
1 40875U 15039B   25309.10498162 -.00000054  00000+0  00000+0 0  9990
2 40875   0.0692 348.5058 0003960 239.9974 205.8897  1.00271597 37413
EUTELSAT 9B             
1 41310U 16005A   25309.10836164  .00000074  00000+0  00000+0 0  9998
2 41310   0.0694  74.0211 0004358 175.6766 202.9228  1.00271572 35876
EUTELSAT 65 WEST A      
1 41382U 16014A   25309.16937089 -.00000264  00000+0  00000+0 0  9993
2 41382   0.0838  52.4027 0002753 186.4437 161.5948  1.00268678 35289
EUTELSAT 117 WEST B     
1 41589U 16038B   25309.04412841  .00000001  00000+0  00000+0 0  9997
2 41589   0.0167 108.0883 0000391 349.6653 205.6826  1.00270113 34416
EUTELSAT 172B           
1 42741U 17029B   25308.60878229  .00000007  00000+0  00000+0 0  9992
2 42741   0.0230 174.2640 0000053  54.9541 206.0661  1.00271631 31472
EUTELSAT 7C             
1 44334U 19034B   25308.17961375  .00000061  00000+0  00000+0 0  9997
2 44334   0.0679 185.0031 0003318  21.3930 268.9636  1.00270578  4579
EUTELSAT 5 WEST B       
1 44624U 19067A   25309.10558830 -.00000029  00000+0  00000+0 0  9992
2 44624   0.0724 332.2967 0003713 259.0168 206.3376  1.00275426 22190
EUTELSAT KONNECT        
1 45027U 20005B   25308.17961375  .00000062  00000+0  00000+0 0  9998
2 45027   0.0662  89.9993 0001314 185.0038 200.5498  1.00267920 22071
